#aV2023  4  1  0  0  0.00000000     288 DD+AD WGS84 FIT  NGA
## 2255 518400.00000000   300.00000000 60035 0.0000000000000
+   32     1  2  3  4  5  6  7  8  9 10 11 12 13 14 15 16 17
+         18 19 20 21 22 23 24 25 26 27 28 29 30 31 32  0  0
+          0  0  0  0  0  0  0  0  0  0  0  0  0  0  0  0  0
+          0  0  0  0  0  0  0  0  0  0  0  0  0  0  0  0  0
+          0  0  0  0  0  0  0  0  0  0  0  0  0  0  0  0  0
++         2  2  2  2  2  2  2  2  2  2  2  2  2  2  2  2  2
++         2  2  2  2  2  2  2  2  2  2  2  2  2  2  2  0  0
++         0  0  0  0  0  0  0  0  0  0  0  0  0  0  0  0  0
++         0  0  0  0  0  0  0  0  0  0  0  0  0  0  0  0  0
++         0  0  0  0  0  0  0  0  0  0  0  0  0  0  0  0  0
%c cc cc ccc ccc cccc cccc cccc cccc ccccc ccccc ccccc ccccc
%c cc cc ccc ccc cccc cccc cccc cccc ccccc ccccc ccccc ccccc
%f  0.0000000  0.000000000  0.00000000000  0.000000000000000
%f  0.0000000  0.000000000  0.00000000000  0.000000000000000
%i    0    0    0    0      0      0      0      0         0
%i    0    0    0    0      0      0      0      0         0
/*      NGA, ST. LOUIS,MO.                                  
/*   EPHEMERIS COMPUTED FROM 2 DAYS OF DATA                 
/*   EPOCHA v8 SMOOTHER                                     
/*   G2139 IERS2010 SATIGS SATAPC                           
*  2023  4  1 22 40  0.00000000
P  1  21880.206547  14793.764905  -4579.535756    197.093785                    
V  1  -5426.951470  -1119.069918 -31468.179178     -0.035011                    
P  2 -23862.732021 -11239.606726   2196.287137   -609.802336                    
V  2   2946.637596  -1806.096181  31908.895574      0.029795                    
P  3  12482.564661  15993.401522  17081.179935   -338.437049                    
V  3    -97.670367  21889.054906 -20159.006736      0.079710                    
P  4  17127.022883   5512.736566  19585.906022      6.743025                    
V  4 -20558.847715  13926.648036  13956.319882      0.089877                    
P  5  -5409.981527 -25671.591878  -3869.195782   -121.767960                    
V  5   2223.297673  -4979.335989  31419.503236     -0.014650                    
P  6  12038.958449  -9814.564130  21624.668224    585.020132                    
V  6  24051.990615  12726.068584  -7541.772893      0.019627                    
P  7  24657.719824   5719.640524  -8377.238309    210.641760                    
V  7   8767.828487   7324.700632  28772.361359     -0.082053                    
P  8   6380.001557  14057.428404 -21649.884799   -115.763820                    
V  8 -22724.108910  15269.046013   3615.360195     -0.018211                    
P  9  22750.261516  -4701.139834  12843.575708   -188.730152                    
V  9 -12144.317725  11305.151756  25463.758897      0.077377                    
P 10 -11453.229825  15047.703750 -18341.822245    -31.040973                    
V 10  -2936.257807 -23590.283718 -17650.203342     -0.015922                    
P 11  -2527.765367 -17326.348629  19991.394007   -148.772666                    
V 11  22578.244881  11550.713995  12838.342778     -0.121217                    
P 12 -10486.950738 -18715.321019  15436.243090   -358.766321                    
V 12   2107.732191 -20044.692009 -22371.955567     -0.046335                    
P 13   2473.189786 -16796.666365 -20548.573231    499.479451                    
V 13  23631.194838 -10214.488023  11484.951194      0.056589                    
P 14  13548.610336 -12033.033459 -19365.348741     12.625487                    
V 14   2162.517835  24638.238811 -13928.069064      0.109791                    
P 15  -8707.802519 -13620.276109 -21510.978903     26.849567                    
V 15  20107.600451 -17109.232751   3022.027941      0.033966                    
P 16    429.251933  26266.756860  -1701.371020   -511.740623                    
V 16  -3102.058274   1733.012164  32063.245934      0.025038                    
P 17  22825.263259 -13687.298902    747.761180    708.534591                    
V 17   1505.917656   1764.428877 -31980.404910      0.018706                    
P 18 -23344.692076  -2602.474013 -12538.353556   -205.565944                    
V 18 -13169.326609  -9007.637476  26242.999949     -0.167242                    
P 19  18252.964003 -16544.466221   9313.810939    297.996471                    
V 19  11986.848940  -3431.957517 -29157.789868      0.050888                    
P 20   -767.691846 -25726.786065   7006.732818    441.454945                    
V 20   4805.998033   7940.747392  29633.257367     -0.021673                    
P 21  18014.309129  15892.841146 -11634.643694    154.314388                    
V 21 -14970.477404  -3910.860924 -26370.820218     -0.000490                    
P 22 -14909.898497  18178.495163  12636.514308    456.416458                    
V 22 -14598.806908   5403.412884 -26079.875152      0.070302                    
P 23 -14802.229558   2223.708561 -21931.273893     14.107826                    
V 23  -2624.120033 -27704.164562  -1179.798070      0.023683                    
P 24 -20280.653965 -15181.501788  -9008.315465   -135.330651                    
V 24  11178.018368   1298.455089 -28058.679441     -0.149157                    
P 25 -14956.732499  -7940.732761  20212.460143    432.368906                    
V 25   -920.266626 -26330.938019 -10591.678514      0.029347                    
P 26  -5691.494220  22991.087833  11552.632277    241.929268                    
V 26  -5222.850345 -14487.515115  26336.505894     -0.001146                    
P 27  -5384.885343  18619.497211 -18212.163402     68.093566                    
V 27 -19859.087045  11255.097894  18025.325856     -0.082218                    
P 28 -13739.388400   9519.621632  20611.485804     56.992741                    
V 28 -23486.676162 -11721.061447 -10233.791996      0.078335                    
P 29 -21461.589366   -154.905987  15647.108726   -593.634187                    
V 29  16623.648235 -11046.071261  22535.748523     -0.017350                    
P 30  19191.840709  -4839.096666 -17727.872107   -524.351180                    
V 30  19344.825273  12028.689965  17292.642998      0.017247                    
P 31  -7794.158392  13141.363173  21565.894927   -213.006215                    
V 31 -24631.895998 -12883.773074   -607.632248     -0.008796                    
P 32 -20733.211256  16230.522580   2706.552514   -440.079796                    
V 32  -4367.810006   -680.245148 -31607.454340     -0.104274                    
EOF
